SL-14 R/B               
1 21423U 91042B   26043.57041605  .00000416  00000+0  49623-4 0  9999
2 21423  82.4898 243.7425 0016259 328.2311  31.7921 14.81804603849350
ERS-1                   
1 21574U 91050A   26043.60370305  .00000376  00000+0  13509-3 0  9999
2 21574  98.7894  61.2074 0030893 276.9592  82.8081 14.39428836812128
ARIANE 40 R/B           
1 21610U 91050F   26043.57561159  .00000318  00000+0  10777-3 0  9995
2 21610  98.2067  96.7479 0004002 136.3973 223.7534 14.42874838815373
INTERCOSMOS 25          
1 21819U 91086A   26043.22880446  .00001625  00000+0  31528-3 0  9999
2 21819  82.6086 325.3940 1486844 171.7826 191.0863 12.11929363493603
SL-8 R/B                
1 21876U 92008B   26043.62764629  .00000030  00000+0  14932-4 0  9995
2 21876  82.9258 286.4235 0034011 202.7771 184.7260 13.75969691705977
SL-8 R/B                
1 21938U 92020B   26043.45349219  .00000117  00000+0  10537-3 0  9995
2 21938  82.9335 172.4927 0029058  10.9554  59.1455 13.75545991697667
USA 81                  
1 21949U 92023A   26043.37022563  .00000215  00000+0  72337-4 0  9997
2 21949  85.0120 146.0411 0002700 100.3624 259.7873 14.32358795 91160
COSMOS 2219             
1 22219U 92076A   26043.47959471  .00000047  00000+0  49577-4 0  9997
2 22219  71.0578  70.7714 0020172 241.3480 118.5614 14.14076770714810
SL-16 R/B               
1 22220U 92076B   26043.55714023 -.00000121  00000+0 -36688-4 0  9994
2 22220  70.9977 241.3150 0011314 141.6238 249.4743 14.16855929718278
COSMOS 2221             
1 22236U 92080A   26043.22292344  .00002006  00000+0  17594-3 0  9993
2 22236  82.5053 303.4717 0012803 280.4885  79.4894 14.96101012776987
SL-16 R/B               
1 22285U 92093B   26043.51024708  .00000144  00000+0  97962-4 0  9999
2 22285  71.0200  57.1249 0005265 320.6331  39.4409 14.15441584709591
COSMOS 2228             
1 22286U 92094A   26043.59013960  .00001813  00000+0  15455-3 0  9997
2 22286  82.5154 261.3462 0018816  30.5304 329.7010 14.97071593772307
