CCSDS_OMM_VERS = 2.0
CREATION_DATE  = 
ORIGINATOR     = 

OBJECT_NAME    = SL-14 R/B
OBJECT_ID      = 1991-042B
CENTER_NAME    = EARTH
REF_FRAME      = TEME
TIME_SYSTEM    = UTC
MEAN_ELEMENT_THEORY = SGP/SGP4

EPOCH          = 2026-02-12T13:41:23.946720
MEAN_MOTION    = 14.81804603
ECCENTRICITY   = .00162594
INCLINATION    = 82.4898
RA_OF_ASC_NODE = 243.7425
ARG_OF_PERICENTER = 328.2311
MEAN_ANOMALY   = 31.7921

EPHEMERIS_TYPE = 0
CLASSIFICATION_TYPE = U
NORAD_CAT_ID   = 21423
ELEMENT_SET_NO = 999
REV_AT_EPOCH   = 84935
BSTAR          = .49622589E-4
MEAN_MOTION_DOT = .416E-5
MEAN_MOTION_DDOT = 0

CCSDS_OMM_VERS = 2.0
CREATION_DATE  = 
ORIGINATOR     = 

OBJECT_NAME    = ERS-1
OBJECT_ID      = 1991-050A
CENTER_NAME    = EARTH
REF_FRAME      = TEME
TIME_SYSTEM    = UTC
MEAN_ELEMENT_THEORY = SGP/SGP4

EPOCH          = 2026-02-12T14:29:19.943520
MEAN_MOTION    = 14.39428836
ECCENTRICITY   = .00308937
INCLINATION    = 98.7894
RA_OF_ASC_NODE = 61.2074
ARG_OF_PERICENTER = 276.9592
MEAN_ANOMALY   = 82.8081

EPHEMERIS_TYPE = 0
CLASSIFICATION_TYPE = U
NORAD_CAT_ID   = 21574
ELEMENT_SET_NO = 999
REV_AT_EPOCH   = 81212
BSTAR          = .13509043E-3
MEAN_MOTION_DOT = .376E-5
MEAN_MOTION_DDOT = 0

CCSDS_OMM_VERS = 2.0
CREATION_DATE  = 
ORIGINATOR     = 

OBJECT_NAME    = ARIANE 40 R/B
OBJECT_ID      = 1991-050F
CENTER_NAME    = EARTH
REF_FRAME      = TEME
TIME_SYSTEM    = UTC
MEAN_ELEMENT_THEORY = SGP/SGP4

EPOCH          = 2026-02-12T13:48:52.841376
MEAN_MOTION    = 14.42874838
ECCENTRICITY   = .0004002
INCLINATION    = 98.2067
RA_OF_ASC_NODE = 96.7479
ARG_OF_PERICENTER = 136.3973
MEAN_ANOMALY   = 223.7534

EPHEMERIS_TYPE = 0
CLASSIFICATION_TYPE = U
NORAD_CAT_ID   = 21610
ELEMENT_SET_NO = 999
REV_AT_EPOCH   = 81537
BSTAR          = .10777229E-3
MEAN_MOTION_DOT = .318E-5
MEAN_MOTION_DDOT = 0

CCSDS_OMM_VERS = 2.0
CREATION_DATE  = 
ORIGINATOR     = 

OBJECT_NAME    = INTERCOSMOS 25
OBJECT_ID      = 1991-086A
CENTER_NAME    = EARTH
REF_FRAME      = TEME
TIME_SYSTEM    = UTC
MEAN_ELEMENT_THEORY = SGP/SGP4

EPOCH          = 2026-02-12T05:29:28.705344
MEAN_MOTION    = 12.11929363
ECCENTRICITY   = .1486844
INCLINATION    = 82.6086
RA_OF_ASC_NODE = 325.3940
ARG_OF_PERICENTER = 171.7826
MEAN_ANOMALY   = 191.0863

EPHEMERIS_TYPE = 0
CLASSIFICATION_TYPE = U
NORAD_CAT_ID   = 21819
ELEMENT_SET_NO = 999
REV_AT_EPOCH   = 49360
BSTAR          = .31528E-3
MEAN_MOTION_DOT = .1625E-4
MEAN_MOTION_DDOT = 0

CCSDS_OMM_VERS = 2.0
CREATION_DATE  = 
ORIGINATOR     = 

OBJECT_NAME    = SL-8 R/B
OBJECT_ID      = 1992-008B
CENTER_NAME    = EARTH
REF_FRAME      = TEME
TIME_SYSTEM    = UTC
MEAN_ELEMENT_THEORY = SGP/SGP4

EPOCH          = 2026-02-12T15:03:48.639456
MEAN_MOTION    = 13.75969691
ECCENTRICITY   = .00340115
INCLINATION    = 82.9258
RA_OF_ASC_NODE = 286.4235
ARG_OF_PERICENTER = 202.7771
MEAN_ANOMALY   = 184.7260

EPHEMERIS_TYPE = 0
CLASSIFICATION_TYPE = U
NORAD_CAT_ID   = 21876
ELEMENT_SET_NO = 999
REV_AT_EPOCH   = 70597
BSTAR          = .14931672E-4
MEAN_MOTION_DOT = .3E-6
MEAN_MOTION_DDOT = 0

CCSDS_OMM_VERS = 2.0
CREATION_DATE  = 
ORIGINATOR     = 

OBJECT_NAME    = SL-8 R/B
OBJECT_ID      = 1992-020B
CENTER_NAME    = EARTH
REF_FRAME      = TEME
TIME_SYSTEM    = UTC
MEAN_ELEMENT_THEORY = SGP/SGP4

EPOCH          = 2026-02-12T10:53:01.725216
MEAN_MOTION    = 13.75545991
ECCENTRICITY   = .00290583
INCLINATION    = 82.9335
RA_OF_ASC_NODE = 172.4927
ARG_OF_PERICENTER = 10.9554
MEAN_ANOMALY   = 59.1455

EPHEMERIS_TYPE = 0
CLASSIFICATION_TYPE = U
NORAD_CAT_ID   = 21938
ELEMENT_SET_NO = 999
REV_AT_EPOCH   = 69766
BSTAR          = .10537258E-3
MEAN_MOTION_DOT = .117E-5
MEAN_MOTION_DDOT = 0

CCSDS_OMM_VERS = 2.0
CREATION_DATE  = 
ORIGINATOR     = 

OBJECT_NAME    = USA 81
OBJECT_ID      = 1992-023A
CENTER_NAME    = EARTH
REF_FRAME      = TEME
TIME_SYSTEM    = UTC
MEAN_ELEMENT_THEORY = SGP/SGP4

EPOCH          = 2026-02-12T08:53:07.494432
MEAN_MOTION    = 14.32358795
ECCENTRICITY   = .00027007
INCLINATION    = 85.0120
RA_OF_ASC_NODE = 146.0411
ARG_OF_PERICENTER = 100.3624
MEAN_ANOMALY   = 259.7873

EPHEMERIS_TYPE = 0
CLASSIFICATION_TYPE = U
NORAD_CAT_ID   = 21949
ELEMENT_SET_NO = 999
REV_AT_EPOCH   = 9116
BSTAR          = .72336868E-4
MEAN_MOTION_DOT = .215E-5
MEAN_MOTION_DDOT = 0

CCSDS_OMM_VERS = 2.0
CREATION_DATE  = 
ORIGINATOR     = 

OBJECT_NAME    = COSMOS 2219
OBJECT_ID      = 1992-076A
CENTER_NAME    = EARTH
REF_FRAME      = TEME
TIME_SYSTEM    = UTC
MEAN_ELEMENT_THEORY = SGP/SGP4

EPOCH          = 2026-02-12T11:30:36.982944
MEAN_MOTION    = 14.14076770
ECCENTRICITY   = .00201725
INCLINATION    = 71.0578
RA_OF_ASC_NODE = 70.7714
ARG_OF_PERICENTER = 241.3480
MEAN_ANOMALY   = 118.5614

EPHEMERIS_TYPE = 0
CLASSIFICATION_TYPE = U
NORAD_CAT_ID   = 22219
ELEMENT_SET_NO = 999
REV_AT_EPOCH   = 71481
BSTAR          = .49577069E-4
MEAN_MOTION_DOT = .47E-6
MEAN_MOTION_DDOT = 0

CCSDS_OMM_VERS = 2.0
CREATION_DATE  = 
ORIGINATOR     = 

OBJECT_NAME    = SL-16 R/B
OBJECT_ID      = 1992-076B
CENTER_NAME    = EARTH
REF_FRAME      = TEME
TIME_SYSTEM    = UTC
MEAN_ELEMENT_THEORY = SGP/SGP4

EPOCH          = 2026-02-12T13:22:16.915872
MEAN_MOTION    = 14.16855929
ECCENTRICITY   = .00113144
INCLINATION    = 70.9977
RA_OF_ASC_NODE = 241.3150
ARG_OF_PERICENTER = 141.6238
MEAN_ANOMALY   = 249.4743

EPHEMERIS_TYPE = 0
CLASSIFICATION_TYPE = U
NORAD_CAT_ID   = 22220
ELEMENT_SET_NO = 999
REV_AT_EPOCH   = 71827
BSTAR          = -.36687958E-4
MEAN_MOTION_DOT = -.121E-5
MEAN_MOTION_DDOT = 0

CCSDS_OMM_VERS = 2.0
CREATION_DATE  = 
ORIGINATOR     = 

OBJECT_NAME    = COSMOS 2221
OBJECT_ID      = 1992-080A
CENTER_NAME    = EARTH
REF_FRAME      = TEME
TIME_SYSTEM    = UTC
MEAN_ELEMENT_THEORY = SGP/SGP4

EPOCH          = 2026-02-12T05:21:00.585216
MEAN_MOTION    = 14.96101012
ECCENTRICITY   = .0012803
INCLINATION    = 82.5053
RA_OF_ASC_NODE = 303.4717
ARG_OF_PERICENTER = 280.4885
MEAN_ANOMALY   = 79.4894

EPHEMERIS_TYPE = 0
CLASSIFICATION_TYPE = U
NORAD_CAT_ID   = 22236
ELEMENT_SET_NO = 999
REV_AT_EPOCH   = 77698
BSTAR          = .17594E-3
MEAN_MOTION_DOT = .2006E-4
MEAN_MOTION_DDOT = 0

CCSDS_OMM_VERS = 2.0
CREATION_DATE  = 
ORIGINATOR     = 

OBJECT_NAME    = SL-16 R/B
OBJECT_ID      = 1992-093B
CENTER_NAME    = EARTH
REF_FRAME      = TEME
TIME_SYSTEM    = UTC
MEAN_ELEMENT_THEORY = SGP/SGP4

EPOCH          = 2026-02-12T12:14:45.347712
MEAN_MOTION    = 14.15441584
ECCENTRICITY   = .00052655
INCLINATION    = 71.0200
RA_OF_ASC_NODE = 57.1249
ARG_OF_PERICENTER = 320.6331
MEAN_ANOMALY   = 39.4409

EPHEMERIS_TYPE = 0
CLASSIFICATION_TYPE = U
NORAD_CAT_ID   = 22285
ELEMENT_SET_NO = 999
REV_AT_EPOCH   = 70959
BSTAR          = .97961805E-4
MEAN_MOTION_DOT = .144E-5
MEAN_MOTION_DDOT = 0

CCSDS_OMM_VERS = 2.0
CREATION_DATE  = 
ORIGINATOR     = 

OBJECT_NAME    = COSMOS 2228
OBJECT_ID      = 1992-094A
CENTER_NAME    = EARTH
REF_FRAME      = TEME
TIME_SYSTEM    = UTC
MEAN_ELEMENT_THEORY = SGP/SGP4

EPOCH          = 2026-02-12T14:09:48.061440
MEAN_MOTION    = 14.97071593
ECCENTRICITY   = .00188168
INCLINATION    = 82.5154
RA_OF_ASC_NODE = 261.3462
ARG_OF_PERICENTER = 30.5304
MEAN_ANOMALY   = 329.7010

EPHEMERIS_TYPE = 0
CLASSIFICATION_TYPE = U
NORAD_CAT_ID   = 22286
ELEMENT_SET_NO = 999
REV_AT_EPOCH   = 77230
BSTAR          = .15455373E-3
MEAN_MOTION_DOT = .1813E-4
MEAN_MOTION_DDOT = 0

